QIANFAN-57              
1 62787U 25016C   25345.93640053  .00000192  00000+0  27839-3 0  9996
2 62787  88.9783 103.2818 0002260 122.3379 237.7991 13.50976254 47095
QIANFAN-58              
1 62788U 25016D   25345.98166615  .00000208  00000+0  30313-3 0  9998
2 62788  88.9753 103.1091 0013088 351.7539   8.3395 13.50978170 47146
QIANFAN-59              
1 62789U 25016E   25345.93226284  .00000188  00000+0  27193-3 0  9992
2 62789  88.9777 103.1876 0013579 355.7320   4.3714 13.50979702 47133
QIANFAN-60              
1 62790U 25016F   25345.96532417  .00000077  00000+0  10064-3 0  9991
2 62790  88.9758 103.1559 0014941 351.4047   8.6846 13.50983001 47124
QIANFAN-61              
1 62791U 25016G   25345.92404412  .00000188  00000+0  27301-3 0  9996
2 62791  88.9825 103.3225 0013934 351.2240   8.8666 13.50980062 47133
QIANFAN-62              
1 62792U 25016H   25346.00222039  .00000201  00000+0  29242-3 0  9992
2 62792  88.9772 103.1833 0015309 350.8127   9.2742 13.50976630 47131
QIANFAN-63              
1 62793U 25016J   25345.95287438  .00000194  00000+0  28235-3 0  9992
2 62793  88.9778 103.1399 0015506 356.5052   3.5988 13.50983237 47167
QIANFAN-64              
1 62794U 25016K   25345.99397589  .00000203  00000+0  29611-3 0  9996
2 62794  88.9765 103.1098 0013268 349.8653  10.2229 13.50978405 47169
